QIANFAN-89              
1 63175U 25046S   25359.83804073  .00000197  00000+0  28625-3 0  9998
2 63175  88.9775 318.6824 0018488  86.5823 273.7443 13.50980321 49174
QIANFAN-90              
1 63176U 25046T   25359.86677478  .00000171  00000+0  24651-3 0  9996
2 63176  88.9775 318.6518 0015433  84.7662 275.5250 13.50980500 49190
QIANFAN-91              
1 66033U 25233A   25358.70278488 -.02095777  00000+0 -28630+1 0  9997
2 66033  88.9935  60.9015 0011559  10.6267 349.5133 13.63101017  9613
QIANFAN-92              
1 66034U 25233B   25358.68014428 -.01868850  00000+0 -27356+1 0  9990
2 66034  88.9931  60.8951 0014583   2.5069 357.6158 13.58977676  9611
QIANFAN-93              
1 66035U 25233C   25358.63316265 -.02151232  00000+0 -30113+1 0  9995
2 66035  88.9935  60.9114 0013448 353.8000   6.2989 13.61685974  9603
QIANFAN-94              
1 66036U 25233D   25358.92599416 -.02090609  00000+0 -27114+1 0  9996
2 66036  88.9951  60.8610 0013153  23.8360 336.3406 13.66296627  9652
QIANFAN-95              
1 66037U 25233E   25358.51714505 -.02112450  00000+0 -14104+1 0  9994
2 66037  88.9952  60.7274 0013996 359.2264   0.8893 14.05303347  9692
QIANFAN-96              
1 66038U 25233F   25359.09824983 -.02039392  00000+0 -29276+1 0  9990
2 66038  88.9953  60.8675 0011019   5.1772 354.9496 13.59894796  9665
